GLOBALSTAR M035         
1 25851U 99037A   24262.17561197 -.00000074  00000+0 -38862-3 0  9994
2 25851  51.9958 301.5791 0013626 261.0811 170.8435 11.04532492 66217
GLOBALSTAR M032         
1 25852U 99037B   24261.89473216 -.00000045  00000+0  69265-3 0  9995
2 25852  51.9929 146.1846 0011281  67.7041 292.4954 11.19063314104309
GLOBALSTAR M051         
1 25853U 99037C   24262.15226735 -.00000024  00000+0  11719-2 0  9995
2 25853  51.9826 337.1427 0001706  96.7546 263.3459 11.42200460101323
GLOBALSTAR M030         
1 25854U 99037D   24261.93175993 -.00000017  00000+0  12287-2 0  9993
2 25854  51.9862 161.0905 0003370 286.3693  73.6753 11.55101158118581
GLOBALSTAR M048         
1 25872U 99041A   24261.96357646 -.00000063  00000+0  18009-3 0  9998
2 25872  51.9348 262.1066 0013335  72.7135 305.2287 11.33849435 94101
GLOBALSTAR M026         
1 25873U 99041B   24261.88646781 -.00000142  00000+0 -28793-2 0  9990
2 25873  52.0019  63.0373 0001865 123.1966  39.4318 11.06833022118334
GLOBALSTAR M043         
1 25874U 99041C   24261.76377163 -.00000118  00000+0 -14827-2 0  9999
2 25874  51.9444 359.3655 0012955 204.1013 279.1074 11.25685535 92196
GLOBALSTAR M028         
1 25875U 99041D   24261.45002484 -.00000099  00000+0  81905-5 0  9998
2 25875  51.9623 286.3103 0063439 198.9751 160.8745 12.50564357156059
